{"type": "FeatureCollection", "features": [ {"type": "Feature", "properties": {"norad_id": 40230, "name": "COSMOS 2251 DEB", "group": "cosmos-2251-debris", "lat": -35.20694067181894, "lon": 36.52412604683677, "alt_km": 723.9926316099509, "timestamp": "2025-12-24T11:33:00.417113+00:00", "meta": {"OBJECT_NAME": "COSMOS 2251 DEB", "OBJECT_ID": "1993-036BVK", "EPOCH": "2025-12-20T07:41:52.070784", "MEAN_MOTION": 14.49354869, "ECCENTRICITY": 0.00189754, "INCLINATION": 74.0435, "RA_OF_ASC_NODE": 212.675, "ARG_OF_PERICENTER": 270.0639, "MEAN_ANOMALY": 207.3635, "EPHEMERIS_TYPE": 0, "CLASSIFICATION_TYPE": "U", "NORAD_CAT_ID": 40230, "ELEMENT_SET_NO": 999, "REV_AT_EPOCH": 59081, "BSTAR": 0.00041501757, "MEAN_MOTION_DOT": 1.562e-05, "MEAN_MOTION_DDOT": 0}, "tle": {"line1": "1 40230U 93036BVK 25354.32074156  .00001562  00000+0  41502-3 0  9995", "line2": "2 40230  74.0435 212.6750 0018975 270.0639 207.3635 14.49354869590816"}}, "geometry": {"type": "Point", "coordinates": [36.52412604683677, -35.20694067181894]}}, {"type": "Feature", "properties": {"norad_id": 40233, "name": "COSMOS 2251 DEB", "group": "cosmos-2251-debris", "lat": 61.299966137028676, "lon": 112.371611244116, "alt_km": 689.9279002252615, "timestamp": "2025-12-24T11:33:00.417124+00:00", "meta": {"OBJECT_NAME": "COSMOS 2251 DEB", "OBJECT_ID": "1993-036BVN", "EPOCH": "2025-12-23T05:37:00.739776", "MEAN_MOTION": 14.58525545, "ECCENTRICITY": 0.00442365, "INCLINATION": 73.9411, "RA_OF_ASC_NODE": 83.0144, "ARG_OF_PERICENTER": 155.8428, "MEAN_ANOMALY": 204.4825, "EPHEMERIS_TYPE": 0, "CLASSIFICATION_TYPE": "U", "NORAD_CAT_ID": 40233, "ELEMENT_SET_NO": 999, "REV_AT_EPOCH": 59290, "BSTAR": 0.0011631009, "MEAN_MOTION_DOT": 5.452e-05, "MEAN_MOTION_DDOT": 0}, "tle": {"line1": "1 40233U 93036BVN 25357.23403634  .00005452  00000+0  11631-2 0  9999", "line2": "2 40233  73.9411  83.0144 0044236 155.8428 204.4825 14.58525545592905"}}, "geometry": {"type": "Point", "coordinates": [112.371611244116, 61.299966137028676]}}, {"type": "Feature", "properties": {"norad_id": 40236, "name": "COSMOS 2251 DEB", "group": "cosmos-2251-debris", "lat": -42.240502274657075, "lon": -39.169839148915756, "alt_km": 1474.0149054851317, "timestamp": "2025-12-24T11:33:00.417135+00:00", "meta": {"OBJECT_NAME": "COSMOS 2251 DEB", "OBJECT_ID": "1993-036BVR", "EPOCH": "2025-12-07T17:52:23.026080", "MEAN_MOTION": 13.24639967, "ECCENTRICITY": 0.05366128, "INCLINATION": 73.5349, "RA_OF_ASC_NODE": 151.6266, "ARG_OF_PERICENTER": 32.3576, "MEAN_ANOMALY": 330.9258, "EPHEMERIS_TYPE": 0, "CLASSIFICATION_TYPE": "U", "NORAD_CAT_ID": 40236, "ELEMENT_SET_NO": 999, "REV_AT_EPOCH": 53558, "BSTAR": 0.0015786255, "MEAN_MOTION_DOT": 1.455e-05, "MEAN_MOTION_DDOT": 0}, "tle": {"line1": "1 40236U 93036BVR 25341.74471095  .00001455  00000+0  15786-2 0  9991", "line2": "2 40236  73.5349 151.6266 0536612  32.3576 330.9258 13.24639967535580"}}, "geometry": {"type": "Point", "coordinates": [-39.169839148915756, -42.240502274657075]}}, {"type": "Feature", "properties": {"norad_id": 40238, "name": "COSMOS 2251 DEB", "group": "cosmos-2251-debris", "lat": -20.486550610402965, "lon": 39.40955144147822, "alt_km": 827.699310198429, "timestamp": "2025-12-24T11:33:00.417145+00:00", "meta": {"OBJECT_NAME": "COSMOS 2251 DEB", "OBJECT_ID": "1993-036BVT", "EPOCH": "2025-12-22T19:47:22.832448", "MEAN_MOTION": 13.25143259, "ECCENTRICITY": 0.05497275, "INCLINATION": 73.9885, "RA_OF_ASC_NODE": 48.1113, "ARG_OF_PERICENTER": 17.8467, "MEAN_ANOMALY": 344.111, "EPHEMERIS_TYPE": 0, "CLASSIFICATION_TYPE": "U", "NORAD_CAT_ID": 40238, "ELEMENT_SET_NO": 999, "REV_AT_EPOCH": 54170, "BSTAR": 0.0018868212, "MEAN_MOTION_DOT": 1.833e-05, "MEAN_MOTION_DDOT": 0}, "tle": {"line1": "1 40238U 93036BVT 25356.82456982  .00001833  00000+0  18868-2 0  9990", "line2": "2 40238  73.9885  48.1113 0549727  17.8467 344.1110 13.25143259541700"}}, "geometry": {"type": "Point", "coordinates": [39.40955144147822, -20.486550610402965]}}, {"type": "Feature", "properties": {"norad_id": 40239, "name": "COSMOS 2251 DEB", "group": "cosmos-2251-debris", "lat": 7.754294198658655, "lon": 71.1160244960656, "alt_km": 747.6309322126817, "timestamp": "2025-12-24T11:33:00.417156+00:00", "meta": {"OBJECT_NAME": "COSMOS 2251 DEB", "OBJECT_ID": "1993-036BVU", "EPOCH": "2025-12-23T23:20:18.364128", "MEAN_MOTION": 14.62039549, "ECCENTRICITY": 0.008546, "INCLINATION": 74.0319, "RA_OF_ASC_NODE": 254.3246, "ARG_OF_PERICENTER": 2.8488, "MEAN_ANOMALY": 11.8068, "EPHEMERIS_TYPE": 0, "CLASSIFICATION_TYPE": "U", "NORAD_CAT_ID": 40239, "ELEMENT_SET_NO": 999, "REV_AT_EPOCH": 59775, "BSTAR": 0.00037675, "MEAN_MOTION_DOT": 1.96e-05, "MEAN_MOTION_DDOT": 0}, "tle": {"line1": "1 40239U 93036BVU 25357.97243477  .00001960  00000+0  37675-3 0  9990", "line2": "2 40239  74.0319 254.3246 0085460   2.8488  11.8068 14.62039549597753"}}, "geometry": {"type": "Point", "coordinates": [71.1160244960656, 7.754294198658655]}}, {"type": "Feature", "properties": {"norad_id": 40792, "name": "COSMOS 2251 DEB", "group": "cosmos-2251-debris", "lat": -31.148635650659347, "lon": -145.24885469699572, "alt_km": 673.4988467236944, "timestamp": "2025-12-24T11:33:00.417167+00:00", "meta": {"OBJECT_NAME": "COSMOS 2251 DEB", "OBJECT_ID": "1993-036BVV", "EPOCH": "2025-12-21T09:02:29.575680", "MEAN_MOTION": 14.67648102, "ECCENTRICITY": 0.00147404, "INCLINATION": 74.0452, "RA_OF_ASC_NODE": 30.785, "ARG_OF_PERICENTER": 133.0098, "MEAN_ANOMALY": 243.0806, "EPHEMERIS_TYPE": 0, "CLASSIFICATION_TYPE": "U", "NORAD_CAT_ID": 40792, "ELEMENT_SET_NO": 999, "REV_AT_EPOCH": 63311, "BSTAR": 0.00064575886, "MEAN_MOTION_DOT": 3.648e-05, "MEAN_MOTION_DDOT": 0}, "tle": {"line1": "1 40792U 93036BVV 25355.37673120  .00003648  00000+0  64576-3 0  9993", "line2": "2 40792  74.0452  30.7850 0014740 133.0098 243.0806 14.67648102633115"}}, "geometry": {"type": "Point", "coordinates": [-145.24885469699572, -31.148635650659347]}}, {"type": "Feature", "properties": {"norad_id": 40794, "name": "COSMOS 2251 DEB", "group": "cosmos-2251-debris", "lat": -73.5466723190452, "lon": -2.799939816952025, "alt_km": 585.5808643349801, "timestamp": "2025-12-24T11:33:00.417178+00:00", "meta": {"OBJECT_NAME": "COSMOS 2251 DEB", "OBJECT_ID": "1993-036BVX", "EPOCH": "2025-12-24T01:30:51.701760", "MEAN_MOTION": 14.94031865, "ECCENTRICITY": 0.0009728, "INCLINATION": 73.9771, "RA_OF_ASC_NODE": 101.3724, "ARG_OF_PERICENTER": 255.1473, "MEAN_ANOMALY": 282.9356, "EPHEMERIS_TYPE": 0, "CLASSIFICATION_TYPE": "U", "NORAD_CAT_ID": 40794, "ELEMENT_SET_NO": 999, "REV_AT_EPOCH": 62093, "BSTAR": 0.0045653, "MEAN_MOTION_DOT": 0.00049073, "MEAN_MOTION_DDOT": 0}, "tle": {"line1": "1 40794U 93036BVX 25358.06309840  .00049073  00000+0  45653-2 0  9995", "line2": "2 40794  73.9771 101.3724 0009728 255.1473 282.9356 14.94031865620937"}}, "geometry": {"type": "Point", "coordinates": [-2.799939816952025, -73.5466723190452]}}, {"type": "Feature", "properties": {"norad_id": 40796, "name": "COSMOS 2251 DEB", "group": "cosmos-2251-debris", "lat": 11.951414230897491, "lon": -64.51623910898022, "alt_km": 621.5397367267542, "timestamp": "2025-12-24T11:33:00.417188+00:00", "meta": {"OBJECT_NAME": "COSMOS 2251 DEB", "OBJECT_ID": "1993-036BVZ", "EPOCH": "2025-12-24T01:52:38.366976", "MEAN_MOTION": 14.81857353, "ECCENTRICITY": 0.0056019, "INCLINATION": 74.0132, "RA_OF_ASC_NODE": 119.7598, "ARG_OF_PERICENTER": 254.4442, "MEAN_ANOMALY": 284.484, "EPHEMERIS_TYPE": 0, "CLASSIFICATION_TYPE": "U", "NORAD_CAT_ID": 40796, "ELEMENT_SET_NO": 999, "REV_AT_EPOCH": 76326, "BSTAR": 0.0010029, "MEAN_MOTION_DOT": 8.123e-05, "MEAN_MOTION_DDOT": 0}, "tle": {"line1": "1 40796U 93036BVZ 25358.07822184  .00008123  00000+0  10029-2 0  9999", "line2": "2 40796  74.0132 119.7598 0056019 254.4442 284.4840 14.81857353763260"}}, "geometry": {"type": "Point", "coordinates": [-64.51623910898022, 11.951414230897491]}}, {"type": "Feature", "properties": {"norad_id": 40797, "name": "COSMOS 2251 DEB", "group": "cosmos-2251-debris", "lat": 47.65793394469563, "lon": 89.29701084519208, "alt_km": 509.93931968467314, "timestamp": "2025-12-24T11:33:00.417199+00:00", "meta": {"OBJECT_NAME": "COSMOS 2251 DEB", "OBJECT_ID": "1993-036BWA", "EPOCH": "2025-12-21T22:58:09.286752", "MEAN_MOTION": 15.11502821, "ECCENTRICITY": 0.00722284, "INCLINATION": 73.9213, "RA_OF_ASC_NODE": 76.1019, "ARG_OF_PERICENTER": 345.6422, "MEAN_ANOMALY": 14.2715, "EPHEMERIS_TYPE": 0, "CLASSIFICATION_TYPE": "U", "NORAD_CAT_ID": 40797, "ELEMENT_SET_NO": 999, "REV_AT_EPOCH": 64783, "BSTAR": 0.00074206778, "MEAN_MOTION_DOT": 0.00013364, "MEAN_MOTION_DDOT": 0}, "tle": {"line1": "1 40797U 93036BWA 25355.95705193  .00013364  00000+0  74207-3 0  9996", "line2": "2 40797  73.9213  76.1019 0072228 345.6422  14.2715 15.11502821647839"}}, "geometry": {"type": "Point", "coordinates": [89.29701084519208, 47.65793394469563]}}, {"type": "Feature", "properties": {"norad_id": 40799, "name": "COSMOS 2251 DEB", "group": "cosmos-2251-debris", "lat": 24.807844979662423, "lon": -113.20013349542113, "alt_km": 653.6953190565846, "timestamp": "2025-12-24T11:33:00.417209+00:00", "meta": {"OBJECT_NAME": "COSMOS 2251 DEB", "OBJECT_ID": "1993-036BWC", "EPOCH": "2025-12-22T21:57:46.533888", "MEAN_MOTION": 14.96749899, "ECCENTRICITY": 0.0119411, "INCLINATION": 73.9268, "RA_OF_ASC_NODE": 77.6461, "ARG_OF_PERICENTER": 317.3719, "MEAN_ANOMALY": 41.8243, "EPHEMERIS_TYPE": 0, "CLASSIFICATION_TYPE": "U", "NORAD_CAT_ID": 40799, "ELEMENT_SET_NO": 999, "REV_AT_EPOCH": 50129, "BSTAR": 0.0004483, "MEAN_MOTION_DOT": 5.887e-05, "MEAN_MOTION_DDOT": 0}, "tle": {"line1": "1 40799U 93036BWC 25356.91512192  .00005887  00000+0  44830-3 0  9990", "line2": "2 40799  73.9268  77.6461 0119411 317.3719  41.8243 14.96749899501290"}}, "geometry": {"type": "Point", "coordinates": [-113.20013349542113, 24.807844979662423]}}]}